<?xml version="1.0" encoding="UTF-8"?>
<ndm xmlns:xsi="http://www.w3.org/2001/XMLSchema-instance" xsi:noNamespaceSchemaLocation="https://sanaregistry.org/r/ndmxml_unqualified/ndmxml-2.0.0-master-2.0.xsd">
<omm id="CCSDS_OMM_VERS" version="2.0">
<header><CREATION_DATE/><ORIGINATOR/></header><body><segment><metadata><OBJECT_NAME>IRIDIUM 150</OBJECT_NAME><OBJECT_ID>2018-030J</OBJECT_ID><CENTER_NAME>EARTH</CENTER_NAME><REF_FRAME>TEME</REF_FRAME><TIME_SYSTEM>UTC</TIME_SYSTEM><MEAN_ELEMENT_THEORY>SGP4</MEAN_ELEMENT_THEORY></metadata><data><meanElements><EPOCH>2025-12-24T07:23:51.439200</EPOCH><MEAN_MOTION>14.34218972</MEAN_MOTION><ECCENTRICITY>.00023779</ECCENTRICITY><INCLINATION>86.3967</INCLINATION><RA_OF_ASC_NODE>3.5711</RA_OF_ASC_NODE><ARG_OF_PERICENTER>91.1307</ARG_OF_PERICENTER><MEAN_ANOMALY>269.0161</MEAN_ANOMALY></meanElements><tleParameters><EPHEMERIS_TYPE>0</EPHEMERIS_TYPE><CLASSIFICATION_TYPE>U</CLASSIFICATION_TYPE><NORAD_CAT_ID>43257</NORAD_CAT_ID><ELEMENT_SET_NO>999</ELEMENT_SET_NO><REV_AT_EPOCH>40509</REV_AT_EPOCH><BSTAR>.84893331E-4</BSTAR><MEAN_MOTION_DOT>.258E-5</MEAN_MOTION_DOT><MEAN_MOTION_DDOT>0</MEAN_MOTION_DDOT></tleParameters></data></segment></body></omm>
<omm id="CCSDS_OMM_VERS" version="2.0">
<header><CREATION_DATE/><ORIGINATOR/></header><body><segment><metadata><OBJECT_NAME>IRIDIUM 143</OBJECT_NAME><OBJECT_ID>2018-030K</OBJECT_ID><CENTER_NAME>EARTH</CENTER_NAME><REF_FRAME>TEME</REF_FRAME><TIME_SYSTEM>UTC</TIME_SYSTEM><MEAN_ELEMENT_THEORY>SGP4</MEAN_ELEMENT_THEORY></metadata><data><meanElements><EPOCH>2025-12-24T00:14:34.844064</EPOCH><MEAN_MOTION>14.34217379</MEAN_MOTION><ECCENTRICITY>.00024503</ECCENTRICITY><INCLINATION>86.3973</INCLINATION><RA_OF_ASC_NODE>3.7816</RA_OF_ASC_NODE><ARG_OF_PERICENTER>90.5882</ARG_OF_PERICENTER><MEAN_ANOMALY>269.5594</MEAN_ANOMALY></meanElements><tleParameters><EPHEMERIS_TYPE>0</EPHEMERIS_TYPE><CLASSIFICATION_TYPE>U</CLASSIFICATION_TYPE><NORAD_CAT_ID>43258</NORAD_CAT_ID><ELEMENT_SET_NO>999</ELEMENT_SET_NO><REV_AT_EPOCH>40498</REV_AT_EPOCH><BSTAR>.84792876E-4</BSTAR><MEAN_MOTION_DOT>.257E-5</MEAN_MOTION_DOT><MEAN_MOTION_DDOT>0</MEAN_MOTION_DDOT></tleParameters></data></segment></body></omm>
<omm id="CCSDS_OMM_VERS" version="2.0">
<header><CREATION_DATE/><ORIGINATOR/></header><body><segment><metadata><OBJECT_NAME>IRIDIUM 161</OBJECT_NAME><OBJECT_ID>2018-047C</OBJECT_ID><CENTER_NAME>EARTH</CENTER_NAME><REF_FRAME>TEME</REF_FRAME><TIME_SYSTEM>UTC</TIME_SYSTEM><MEAN_ELEMENT_THEORY>SGP4</MEAN_ELEMENT_THEORY></metadata><data><meanElements><EPOCH>2025-12-23T21:36:54.304128</EPOCH><MEAN_MOTION>14.43281221</MEAN_MOTION><ECCENTRICITY>.0001863</ECCENTRICITY><INCLINATION>86.4511</INCLINATION><RA_OF_ASC_NODE>161.7196</RA_OF_ASC_NODE><ARG_OF_PERICENTER>91.1322</ARG_OF_PERICENTER><MEAN_ANOMALY>269.0093</MEAN_ANOMALY></meanElements><tleParameters><EPHEMERIS_TYPE>0</EPHEMERIS_TYPE><CLASSIFICATION_TYPE>U</CLASSIFICATION_TYPE><NORAD_CAT_ID>43478</NORAD_CAT_ID><ELEMENT_SET_NO>999</ELEMENT_SET_NO><REV_AT_EPOCH>39985</REV_AT_EPOCH><BSTAR>.16091E-4</BSTAR><MEAN_MOTION_DOT>.74E-6</MEAN_MOTION_DOT><MEAN_MOTION_DDOT>0</MEAN_MOTION_DDOT></tleParameters></data></segment></body></omm>
<omm id="CCSDS_OMM_VERS" version="2.0">
<header><CREATION_DATE/><ORIGINATOR/></header><body><segment><metadata><OBJECT_NAME>IRIDIUM 152</OBJECT_NAME><OBJECT_ID>2018-047D</OBJECT_ID><CENTER_NAME>EARTH</CENTER_NAME><REF_FRAME>TEME</REF_FRAME><TIME_SYSTEM>UTC</TIME_SYSTEM><MEAN_ELEMENT_THEORY>SGP4</MEAN_ELEMENT_THEORY></metadata><data><meanElements><EPOCH>2025-12-24T04:36:42.058944</EPOCH><MEAN_MOTION>14.34218590</MEAN_MOTION><ECCENTRICITY>.00018537</ECCENTRICITY><INCLINATION>86.3985</INCLINATION><RA_OF_ASC_NODE>161.4584</RA_OF_ASC_NODE><ARG_OF_PERICENTER>94.5328</ARG_OF_PERICENTER><MEAN_ANOMALY>265.6079</MEAN_ANOMALY></meanElements><tleParameters><EPHEMERIS_TYPE>0</EPHEMERIS_TYPE><CLASSIFICATION_TYPE>U</CLASSIFICATION_TYPE><NORAD_CAT_ID>43479</NORAD_CAT_ID><ELEMENT_SET_NO>999</ELEMENT_SET_NO><REV_AT_EPOCH>39740</REV_AT_EPOCH><BSTAR>.29890451E-4</BSTAR><MEAN_MOTION_DOT>.103E-5</MEAN_MOTION_DOT><MEAN_MOTION_DDOT>0</MEAN_MOTION_DDOT></tleParameters></data></segment></body></omm>
<omm id="CCSDS_OMM_VERS" version="2.0">
<header><CREATION_DATE/><ORIGINATOR/></header><body><segment><metadata><OBJECT_NAME>IRIDIUM 147</OBJECT_NAME><OBJECT_ID>2018-047E</OBJECT_ID><CENTER_NAME>EARTH</CENTER_NAME><REF_FRAME>TEME</REF_FRAME><TIME_SYSTEM>UTC</TIME_SYSTEM><MEAN_ELEMENT_THEORY>SGP4</MEAN_ELEMENT_THEORY></metadata><data><meanElements><EPOCH>2025-12-23T22:03:56.941056</EPOCH><MEAN_MOTION>14.34218362</MEAN_MOTION><ECCENTRICITY>.0002127</ECCENTRICITY><INCLINATION>86.3987</INCLINATION><RA_OF_ASC_NODE>161.5745</RA_OF_ASC_NODE><ARG_OF_PERICENTER>90.2048</ARG_OF_PERICENTER><MEAN_ANOMALY>269.9391</MEAN_ANOMALY></meanElements><tleParameters><EPHEMERIS_TYPE>0</EPHEMERIS_TYPE><CLASSIFICATION_TYPE>U</CLASSIFICATION_TYPE><NORAD_CAT_ID>43480</NORAD_CAT_ID><ELEMENT_SET_NO>999</ELEMENT_SET_NO><REV_AT_EPOCH>39736</REV_AT_EPOCH><BSTAR>.45253E-4</BSTAR><MEAN_MOTION_DOT>.147E-5</MEAN_MOTION_DOT><MEAN_MOTION_DDOT>0</MEAN_MOTION_DDOT></tleParameters></data></segment></body></omm>
<omm id="CCSDS_OMM_VERS" version="2.0">
<header><CREATION_DATE/><ORIGINATOR/></header><body><segment><metadata><OBJECT_NAME>IRIDIUM 110</OBJECT_NAME><OBJECT_ID>2018-047F</OBJECT_ID><CENTER_NAME>EARTH</CENTER_NAME><REF_FRAME>TEME</REF_FRAME><TIME_SYSTEM>UTC</TIME_SYSTEM><MEAN_ELEMENT_THEORY>SGP4</MEAN_ELEMENT_THEORY></metadata><data><meanElements><EPOCH>2025-12-23T23:53:33.922464</EPOCH><MEAN_MOTION>14.34217719</MEAN_MOTION><ECCENTRICITY>.00014867</ECCENTRICITY><INCLINATION>86.3991</INCLINATION><RA_OF_ASC_NODE>161.6300</RA_OF_ASC_NODE><ARG_OF_PERICENTER>89.8972</ARG_OF_PERICENTER><MEAN_ANOMALY>270.2394</MEAN_ANOMALY></meanElements><tleParameters><EPHEMERIS_TYPE>0</EPHEMERIS_TYPE><CLASSIFICATION_TYPE>U</CLASSIFICATION_TYPE><NORAD_CAT_ID>43481</NORAD_CAT_ID><ELEMENT_SET_NO>999</ELEMENT_SET_NO><REV_AT_EPOCH>39736</REV_AT_EPOCH><BSTAR>.12236942E-4</BSTAR><MEAN_MOTION_DOT>.54E-6</MEAN_MOTION_DOT><MEAN_MOTION_DDOT>0</MEAN_MOTION_DDOT></tleParameters></data></segment></body></omm>
<omm id="CCSDS_OMM_VERS" version="2.0">
<header><CREATION_DATE/><ORIGINATOR/></header><body><segment><metadata><OBJECT_NAME>IRIDIUM 162</OBJECT_NAME><OBJECT_ID>2018-047G</OBJECT_ID><CENTER_NAME>EARTH</CENTER_NAME><REF_FRAME>TEME</REF_FRAME><TIME_SYSTEM>UTC</TIME_SYSTEM><MEAN_ELEMENT_THEORY>SGP4</MEAN_ELEMENT_THEORY></metadata><data><meanElements><EPOCH>2025-12-24T04:07:11.314272</EPOCH><MEAN_MOTION>14.43280300</MEAN_MOTION><ECCENTRICITY>.00019826</ECCENTRICITY><INCLINATION>86.4511</INCLINATION><RA_OF_ASC_NODE>161.5000</RA_OF_ASC_NODE><ARG_OF_PERICENTER>101.4705</ARG_OF_PERICENTER><MEAN_ANOMALY>258.6719</MEAN_ANOMALY></meanElements><tleParameters><EPHEMERIS_TYPE>0</EPHEMERIS_TYPE><CLASSIFICATION_TYPE>U</CLASSIFICATION_TYPE><NORAD_CAT_ID>43482</NORAD_CAT_ID><ELEMENT_SET_NO>999</ELEMENT_SET_NO><REV_AT_EPOCH>39988</REV_AT_EPOCH><BSTAR>.40924567E-4</BSTAR><MEAN_MOTION_DOT>.158E-5</MEAN_MOTION_DOT><MEAN_MOTION_DDOT>0</MEAN_MOTION_DDOT></tleParameters></data></segment></body></omm>
<omm id="CCSDS_OMM_VERS" version="2.0">
<header><CREATION_DATE/><ORIGINATOR/></header><body><segment><metadata><OBJECT_NAME>IRIDIUM 160</OBJECT_NAME><OBJECT_ID>2018-061A</OBJECT_ID><CENTER_NAME>EARTH</CENTER_NAME><REF_FRAME>TEME</REF_FRAME><TIME_SYSTEM>UTC</TIME_SYSTEM><MEAN_ELEMENT_THEORY>SGP4</MEAN_ELEMENT_THEORY></metadata><data><meanElements><EPOCH>2025-12-24T06:57:54.391104</EPOCH><MEAN_MOTION>14.34218541</MEAN_MOTION><ECCENTRICITY>.00018759</ECCENTRICITY><INCLINATION>86.3985</INCLINATION><RA_OF_ASC_NODE>129.9268</RA_OF_ASC_NODE><ARG_OF_PERICENTER>88.7115</ARG_OF_PERICENTER><MEAN_ANOMALY>271.4296</MEAN_ANOMALY></meanElements><tleParameters><EPHEMERIS_TYPE>0</EPHEMERIS_TYPE><CLASSIFICATION_TYPE>U</CLASSIFICATION_TYPE><NORAD_CAT_ID>43569</NORAD_CAT_ID><ELEMENT_SET_NO>999</ELEMENT_SET_NO><REV_AT_EPOCH>38830</REV_AT_EPOCH><BSTAR>.48475268E-4</BSTAR><MEAN_MOTION_DOT>.156E-5</MEAN_MOTION_DOT><MEAN_MOTION_DDOT>0</MEAN_MOTION_DDOT></tleParameters></data></segment></body></omm>

</ndm>
