IRIDIUM 150             
1 43257U 18030J   25358.30823425  .00000258  00000+0  84893-4 0  9993
2 43257  86.3967   3.5711 0002377  91.1307 269.0161 14.34218972405093
IRIDIUM 143             
1 43258U 18030K   25358.01012551  .00000257  00000+0  84793-4 0  9990
2 43258  86.3973   3.7816 0002450  90.5882 269.5594 14.34217379404984
IRIDIUM 161             
1 43478U 18047C   25357.90062852  .00000074  00000+0  16091-4 0  9991
2 43478  86.4511 161.7196 0001863  91.1322 269.0093 14.43281221399851
IRIDIUM 152             
1 43479U 18047D   25358.19215346  .00000103  00000+0  29890-4 0  9996
2 43479  86.3985 161.4584 0001853  94.5328 265.6079 14.34218590397400
IRIDIUM 147             
1 43480U 18047E   25357.91940904  .00000147  00000+0  45253-4 0  9991
2 43480  86.3987 161.5745 0002127  90.2048 269.9391 14.34218362397367
IRIDIUM 110             
1 43481U 18047F   25357.99553151  .00000054  00000+0  12237-4 0  9997
2 43481  86.3991 161.6300 0001486  89.8972 270.2394 14.34217719397361
IRIDIUM 162             
1 43482U 18047G   25358.17165873  .00000158  00000+0  40925-4 0  9999
2 43482  86.4511 161.5000 0001982 101.4705 258.6719 14.43280300399889
IRIDIUM 160             
1 43569U 18061A   25358.29021286  .00000156  00000+0  48475-4 0  9999
2 43569  86.3985 129.9268 0001875  88.7115 271.4296 14.34218541388302
